[{"OBJECT_NAME":"OBJECT C","OBJECT_ID":"2024-018C","EPOCH":"2026-03-09T23:27:02.912256","MEAN_MOTION":14.40497628,"ECCENTRICITY":0.04251116,"INCLINATION":58.684,"RA_OF_ASC_NODE":211.7369,"ARG_OF_PERICENTER":351.7809,"MEAN_ANOMALY":7.6397,"EPHEMERIS_TYPE":0,"CLASSIFICATION_TYPE":"U","NORAD_CAT_ID":58851,"ELEMENT_SET_NO":999,"REV_AT_EPOCH":11099,"BSTAR":0.00023456096,"MEAN_MOTION_DOT":1.991e-5,"MEAN_MOTION_DDOT":0},{"OBJECT_NAME":"THOR ABLESTAR DEB","OBJECT_ID":"1961-015GM","EPOCH":"2026-03-09T22:11:45.758688","MEAN_MOTION":13.99366926,"ECCENTRICITY":0.00944933,"INCLINATION":67.7356,"RA_OF_ASC_NODE":287.8653,"ARG_OF_PERICENTER":81.3686,"MEAN_ANOMALY":279.8096,"EPHEMERIS_TYPE":0,"CLASSIFICATION_TYPE":"U","NORAD_CAT_ID":552,"ELEMENT_SET_NO":999,"REV_AT_EPOCH":24281,"BSTAR":0.001236572,"MEAN_MOTION_DOT":1.8e-5,"MEAN_MOTION_DDOT":0}]
